0 SL-12 R/B(AUX MOTOR)
1 37143U 10041G   13281.68805859  .00000017  00000-0  13961-3 0  8617
2 37143 064.8812 321.2470 5741988 152.1712 344.0971 04.24952403 47966
0 SL-12 R/B(AUX MOTOR)
1 37143U 10041G   13283.39981537 -.00000004  00000-0  88306-4 0  8629
2 37143 064.8822 320.6154 5741878 152.1028 082.7810 04.24953413 48036
0 SL-12 R/B(AUX MOTOR)
1 37143U 10041G   13286.63956402  .00000091  00000-0  14182-3 0  8649
2 37143 064.8838 319.4201 5741642 151.9728 359.0376 04.24953403 48176
0 SL-12 R/B(AUX MOTOR)
1 37143U 10041G   13288.52249830  .00000146  00000-0  21417-3 0  8650
2 37143 064.8845 318.7256 5741511 151.8968 359.6045 04.24953688 48259
0 SL-12 R/B(AUX MOTOR)
1 37143U 10041G   13289.69023277  .00000144  00000-0  23173-3 0  8664
2 37143 064.8848 318.2948 5741425 151.8496 346.0403 04.24953686 48307
0 SL-12 R/B(AUX MOTOR)
1 37143U 10041G   13292.52398984  .00000062  00000-0  21027-3 0  8676
2 37143 064.8857 317.2498 5741240 151.7347 001.2055 04.24954422 48420
0 SL-12 R/B(AUX MOTOR)
1 37143U 10041G   13294.40302318 -.00000024  00000-0  11746-3 0  8688
2 37143 064.8863 316.5568 5741115 151.6586 355.8061 04.24955410 48504
0 SL-12 R/B(AUX MOTOR)
1 37143U 10041G   13295.58112020 -.00000056  00000-0  66852-4 0  8692
2 37143 064.8865 316.1223 5741033 151.6110 358.0952 04.24956009 48556
